25162,GLOBALSTAR M001,1998,116.3,-1.0,-,52.0,Inactive,0,LEO,USA,Globalstar,Unknown,Unknown,Unknown,1 25162U 98008A   24077.70815101 -.00000068  00000+0  22034-3 0  9992,2 25162  52.0016 221.8071 0001748  42.8172  59.6949 12.38179135187162,12.38179135,0.0001748,LEO
25163,GLOBALSTAR M004,1998,113.98,-1.0,-,52.0,Inactive,0,LEO,USA,Globalstar,Unknown,Unknown,Unknown,1 25163U 98008B   24078.23937543 -.00000063  00000+0  22699-3 0  9999,2 25163  52.0026   5.0958 0003243   7.9989 156.3015 12.63352736204055,12.63352736,0.0003243,LEO
25164,GLOBALSTAR M002,1998,123.98,-1.0,-,52.0,Inactive,0,LEO,USA,Globalstar,Unknown,Unknown,Unknown,1 25164U 98008C   24077.97336966 -.00000078  00000+0 -38313-4 0  9990,2 25164  52.0020 304.0781 0001954  48.3711 311.7276 11.61498683131059,11.61498683,0.0001954,LEO
25165,GLOBALSTAR M003,1998,118.81,-1.0,-,51.99,Inactive,0,LEO,USA,Globalstar,Unknown,Unknown,Unknown,1 25165U 98008D   24078.08549159  .00000043  00000+0  14129-2 0  9991,2 25165  51.9865 351.7738 0008444  94.6537  10.8190 12.11986160177912,12.1198616,0.0008444,LEO
25306,GLOBALSTAR M014,1998,123.56,-1.0,-,51.98,Inactive,0,LEO,USA,Globalstar,Unknown,Unknown,Unknown,1 25306U 98023A   24077.69183583 -.00000060  00000+0  32346-3 0  9998,2 25306  51.9815 237.6010 0000672 168.9004 279.9435 11.65465734137944,11.65465734,6.72e-05,LEO
25307,GLOBALSTAR M006,1998,124.34,-1.0,-,51.99,Inactive,0,LEO,USA,Globalstar,Unknown,Unknown,Unknown,1 25307U 98023B   24078.02899757 -.00000038  00000+0  77383-3 0  9999,2 25307  51.9916 272.1761 0004025  21.6985 148.0549 11.58157784163972,11.58157784,0.0004025,LEO
25308,GLOBALSTAR M015,1998,125.34,-1.0,-,51.99,Inactive,0,LEO,USA,Globalstar,Unknown,Unknown,Unknown,1 25308U 98023C   24078.16038972 -.00000108  00000+0 -79592-3 0  9992,2 25308  51.9859 349.4186 0012620 347.4083 162.1050 11.48852305141662,11.48852305,0.001262,LEO
25309,GLOBALSTAR M008,1998,116.5,-1.0,-,52.0,Inactive,0,LEO,USA,Globalstar,Unknown,Unknown,Unknown,1 25309U 98023D   24078.33070961 -.00000070  00000+0  20558-3 0  9991,2 25309  51.9961  79.6614 0002315 296.7189 168.9160 12.36038322181470,12.36038322,0.0002315,LEO
